CCSDS_OMM_VERS = 2.0
CREATION_DATE  = 
ORIGINATOR     = 

OBJECT_NAME    = STARLINK-36674
OBJECT_ID      = 2026-022P
CENTER_NAME    = EARTH
REF_FRAME      = TEME
TIME_SYSTEM    = UTC
MEAN_ELEMENT_THEORY = SGP/SGP4

EPOCH          = 2026-02-09T20:00:01.999008
MEAN_MOTION    = 15.97091220
ECCENTRICITY   = .0001484
INCLINATION    = 97.2815
RA_OF_ASC_NODE = 73.3534
ARG_OF_PERICENTER = 82.4823
MEAN_ANOMALY   = 83.3472

EPHEMERIS_TYPE = 0
CLASSIFICATION_TYPE = U
NORAD_CAT_ID   = 67661
ELEMENT_SET_NO = 999
REV_AT_EPOCH   = 241
BSTAR          = -.40569E-2
MEAN_MOTION_DOT = -.1733991E-1
MEAN_MOTION_DDOT = .88062E-3

CCSDS_OMM_VERS = 2.0
CREATION_DATE  = 
ORIGINATOR     = 

OBJECT_NAME    = STARLINK-36700
OBJECT_ID      = 2026-022Q
CENTER_NAME    = EARTH
REF_FRAME      = TEME
TIME_SYSTEM    = UTC
MEAN_ELEMENT_THEORY = SGP/SGP4

EPOCH          = 2026-02-09T20:00:01.999008
MEAN_MOTION    = 15.97439332
ECCENTRICITY   = .0001487
INCLINATION    = 97.2811
RA_OF_ASC_NODE = 73.3554
ARG_OF_PERICENTER = 81.7227
MEAN_ANOMALY   = 89.6315

EPHEMERIS_TYPE = 0
CLASSIFICATION_TYPE = U
NORAD_CAT_ID   = 67662
ELEMENT_SET_NO = 999
REV_AT_EPOCH   = 241
BSTAR          = -.39035E-2
MEAN_MOTION_DOT = -.1700798E-1
MEAN_MOTION_DDOT = .85265E-3

CCSDS_OMM_VERS = 2.0
CREATION_DATE  = 
ORIGINATOR     = 

OBJECT_NAME    = STARLINK-36675
OBJECT_ID      = 2026-022R
CENTER_NAME    = EARTH
REF_FRAME      = TEME
TIME_SYSTEM    = UTC
MEAN_ELEMENT_THEORY = SGP/SGP4

EPOCH          = 2026-02-09T20:00:01.999008
MEAN_MOTION    = 15.97266226
ECCENTRICITY   = .0001515
INCLINATION    = 97.2812
RA_OF_ASC_NODE = 73.3544
ARG_OF_PERICENTER = 75.5482
MEAN_ANOMALY   = 93.0704

EPHEMERIS_TYPE = 0
CLASSIFICATION_TYPE = U
NORAD_CAT_ID   = 67663
ELEMENT_SET_NO = 999
REV_AT_EPOCH   = 241
BSTAR          = -.39746E-2
MEAN_MOTION_DOT = -.1715328E-1
MEAN_MOTION_DDOT = .86466E-3

CCSDS_OMM_VERS = 2.0
CREATION_DATE  = 
ORIGINATOR     = 

OBJECT_NAME    = STARLINK-36404
OBJECT_ID      = 2026-022S
CENTER_NAME    = EARTH
REF_FRAME      = TEME
TIME_SYSTEM    = UTC
MEAN_ELEMENT_THEORY = SGP/SGP4

EPOCH          = 2026-02-09T20:00:01.999008
MEAN_MOTION    = 15.97624053
ECCENTRICITY   = .0001567
INCLINATION    = 97.2806
RA_OF_ASC_NODE = 73.3561
ARG_OF_PERICENTER = 77.8985
MEAN_ANOMALY   = 96.2279

EPHEMERIS_TYPE = 0
CLASSIFICATION_TYPE = U
NORAD_CAT_ID   = 67664
ELEMENT_SET_NO = 999
REV_AT_EPOCH   = 238
BSTAR          = -.3862E-2
MEAN_MOTION_DOT = -.1699858E-1
MEAN_MOTION_DDOT = .8535E-3

CCSDS_OMM_VERS = 2.0
CREATION_DATE  = 
ORIGINATOR     = 

OBJECT_NAME    = STARLINK-36399
OBJECT_ID      = 2026-022T
CENTER_NAME    = EARTH
REF_FRAME      = TEME
TIME_SYSTEM    = UTC
MEAN_ELEMENT_THEORY = SGP/SGP4

EPOCH          = 2026-02-09T20:00:01.999008
MEAN_MOTION    = 15.97747877
ECCENTRICITY   = .0001467
INCLINATION    = 97.2805
RA_OF_ASC_NODE = 73.3574
ARG_OF_PERICENTER = 77.6749
MEAN_ANOMALY   = 98.5269

EPHEMERIS_TYPE = 0
CLASSIFICATION_TYPE = U
NORAD_CAT_ID   = 67665
ELEMENT_SET_NO = 999
REV_AT_EPOCH   = 238
BSTAR          = -.38207E-2
MEAN_MOTION_DOT = -.1693231E-1
MEAN_MOTION_DDOT = .84845E-3

CCSDS_OMM_VERS = 2.0
CREATION_DATE  = 
ORIGINATOR     = 

OBJECT_NAME    = STARLINK-36365
OBJECT_ID      = 2026-022U
CENTER_NAME    = EARTH
REF_FRAME      = TEME
TIME_SYSTEM    = UTC
MEAN_ELEMENT_THEORY = SGP/SGP4

EPOCH          = 2026-02-09T20:00:01.999008
MEAN_MOTION    = 15.97961756
ECCENTRICITY   = .0001512
INCLINATION    = 97.2806
RA_OF_ASC_NODE = 73.3590
ARG_OF_PERICENTER = 77.0513
MEAN_ANOMALY   = 102.2149

EPHEMERIS_TYPE = 0
CLASSIFICATION_TYPE = U
NORAD_CAT_ID   = 67666
ELEMENT_SET_NO = 999
REV_AT_EPOCH   = 241
BSTAR          = -.37984E-2
MEAN_MOTION_DOT = -.1703156E-1
MEAN_MOTION_DDOT = .85978E-3

CCSDS_OMM_VERS = 2.0
CREATION_DATE  = 
ORIGINATOR     = 

OBJECT_NAME    = STARLINK-36622
OBJECT_ID      = 2026-022V
CENTER_NAME    = EARTH
REF_FRAME      = TEME
TIME_SYSTEM    = UTC
MEAN_ELEMENT_THEORY = SGP/SGP4

EPOCH          = 2026-02-09T20:00:01.999008
MEAN_MOTION    = 15.98166431
ECCENTRICITY   = .0001462
INCLINATION    = 97.2805
RA_OF_ASC_NODE = 73.3600
ARG_OF_PERICENTER = 82.3388
MEAN_ANOMALY   = 100.1325

EPHEMERIS_TYPE = 0
CLASSIFICATION_TYPE = U
NORAD_CAT_ID   = 67667
ELEMENT_SET_NO = 999
REV_AT_EPOCH   = 241
BSTAR          = -.36787E-2
MEAN_MOTION_DOT = -.1668565E-1
MEAN_MOTION_DDOT = .82935E-3

CCSDS_OMM_VERS = 2.0
CREATION_DATE  = 
ORIGINATOR     = 

OBJECT_NAME    = STARLINK-36625
OBJECT_ID      = 2026-022W
CENTER_NAME    = EARTH
REF_FRAME      = TEME
TIME_SYSTEM    = UTC
MEAN_ELEMENT_THEORY = SGP/SGP4

EPOCH          = 2026-02-09T20:00:01.999008
MEAN_MOTION    = 15.98418005
ECCENTRICITY   = .0001439
INCLINATION    = 97.2802
RA_OF_ASC_NODE = 73.3616
ARG_OF_PERICENTER = 80.7986
MEAN_ANOMALY   = 105.1308

EPHEMERIS_TYPE = 0
CLASSIFICATION_TYPE = U
NORAD_CAT_ID   = 67668
ELEMENT_SET_NO = 999
REV_AT_EPOCH   = 241
BSTAR          = -.36724E-2
MEAN_MOTION_DOT = -.1688822E-1
MEAN_MOTION_DDOT = .85061E-3

CCSDS_OMM_VERS = 2.0
CREATION_DATE  = 
ORIGINATOR     = 

OBJECT_NAME    = STARLINK-36639
OBJECT_ID      = 2026-022X
CENTER_NAME    = EARTH
REF_FRAME      = TEME
TIME_SYSTEM    = UTC
MEAN_ELEMENT_THEORY = SGP/SGP4

EPOCH          = 2026-02-09T20:00:01.999008
MEAN_MOTION    = 15.98639707
ECCENTRICITY   = .0001421
INCLINATION    = 97.2803
RA_OF_ASC_NODE = 73.3634
ARG_OF_PERICENTER = 82.2891
MEAN_ANOMALY   = 106.9473

EPHEMERIS_TYPE = 0
CLASSIFICATION_TYPE = U
NORAD_CAT_ID   = 67669
ELEMENT_SET_NO = 999
REV_AT_EPOCH   = 241
BSTAR          = -.35886E-2
MEAN_MOTION_DOT = -.1670909E-1
MEAN_MOTION_DDOT = .83591E-3

CCSDS_OMM_VERS = 2.0
CREATION_DATE  = 
ORIGINATOR     = 

OBJECT_NAME    = STARLINK-36596
OBJECT_ID      = 2026-022Y
CENTER_NAME    = EARTH
REF_FRAME      = TEME
TIME_SYSTEM    = UTC
MEAN_ELEMENT_THEORY = SGP/SGP4

EPOCH          = 2026-02-09T20:00:01.999008
MEAN_MOTION    = 15.98818873
ECCENTRICITY   = .0001491
INCLINATION    = 97.2799
RA_OF_ASC_NODE = 73.3642
ARG_OF_PERICENTER = 82.1928
MEAN_ANOMALY   = 109.8225

EPHEMERIS_TYPE = 0
CLASSIFICATION_TYPE = U
NORAD_CAT_ID   = 67670
ELEMENT_SET_NO = 999
REV_AT_EPOCH   = 241
BSTAR          = -.35268E-2
MEAN_MOTION_DOT = -.16587E-1
MEAN_MOTION_DDOT = .8262E-3

CCSDS_OMM_VERS = 2.0
CREATION_DATE  = 
ORIGINATOR     = 

OBJECT_NAME    = STARLINK-36297
OBJECT_ID      = 2026-022Z
CENTER_NAME    = EARTH
REF_FRAME      = TEME
TIME_SYSTEM    = UTC
MEAN_ELEMENT_THEORY = SGP/SGP4

EPOCH          = 2026-02-09T20:00:01.999008
MEAN_MOTION    = 15.99120747
ECCENTRICITY   = .0001399
INCLINATION    = 97.2796
RA_OF_ASC_NODE = 73.3661
ARG_OF_PERICENTER = 82.5743
MEAN_ANOMALY   = 114.1346

EPHEMERIS_TYPE = 0
CLASSIFICATION_TYPE = U
NORAD_CAT_ID   = 67671
ELEMENT_SET_NO = 999
REV_AT_EPOCH   = 241
BSTAR          = -.34502E-2
MEAN_MOTION_DOT = -.1650318E-1
MEAN_MOTION_DDOT = .82119E-3

CCSDS_OMM_VERS = 2.0
CREATION_DATE  = 
ORIGINATOR     = 

OBJECT_NAME    = STARLINK-36616
OBJECT_ID      = 2026-022AA
CENTER_NAME    = EARTH
REF_FRAME      = TEME
TIME_SYSTEM    = UTC
MEAN_ELEMENT_THEORY = SGP/SGP4

EPOCH          = 2026-02-09T20:00:01.999008
MEAN_MOTION    = 15.98981642
ECCENTRICITY   = .0001418
INCLINATION    = 97.2799
RA_OF_ASC_NODE = 73.3654
ARG_OF_PERICENTER = 79.7620
MEAN_ANOMALY   = 114.7426

EPHEMERIS_TYPE = 0
CLASSIFICATION_TYPE = U
NORAD_CAT_ID   = 67672
ELEMENT_SET_NO = 999
REV_AT_EPOCH   = 241
BSTAR          = -.349E-2
MEAN_MOTION_DOT = -.1656356E-1
MEAN_MOTION_DDOT = .82552E-3

