STARLINK-36674          
1 67661U 26022P   26040.83335647 -.01733991  88062-3 -40569-2 0  9997
2 67661  97.2815  73.3534 0001484  82.4823  83.3472 15.97091220  2419
STARLINK-36700          
1 67662U 26022Q   26040.83335647 -.01700798  85265-3 -39035-2 0  9995
2 67662  97.2811  73.3554 0001487  81.7227  89.6315 15.97439332  2416
STARLINK-36675          
1 67663U 26022R   26040.83335647 -.01715328  86466-3 -39746-2 0  9994
2 67663  97.2812  73.3544 0001515  75.5482  93.0704 15.97266226  2414
STARLINK-36404          
1 67664U 26022S   26040.83335647 -.01699858  85350-3 -38620-2 0  9995
2 67664  97.2806  73.3561 0001567  77.8985  96.2279 15.97624053  2381
STARLINK-36399          
1 67665U 26022T   26040.83335647 -.01693231  84845-3 -38207-2 0  9994
2 67665  97.2805  73.3574 0001467  77.6749  98.5269 15.97747877  2384
STARLINK-36365          
1 67666U 26022U   26040.83335647 -.01703156  85978-3 -37984-2 0  9992
2 67666  97.2806  73.3590 0001512  77.0513 102.2149 15.97961756  2416
STARLINK-36622          
1 67667U 26022V   26040.83335647 -.01668565  82935-3 -36787-2 0  9997
2 67667  97.2805  73.3600 0001462  82.3388 100.1325 15.98166431  2412
STARLINK-36625          
1 67668U 26022W   26040.83335647 -.01688822  85061-3 -36724-2 0  9990
2 67668  97.2802  73.3616 0001439  80.7986 105.1308 15.98418005  2410
STARLINK-36639          
1 67669U 26022X   26040.83335647 -.01670909  83591-3 -35886-2 0  9992
2 67669  97.2803  73.3634 0001421  82.2891 106.9473 15.98639707  2411
STARLINK-36596          
1 67670U 26022Y   26040.83335647 -.01658700  82620-3 -35268-2 0  9995
2 67670  97.2799  73.3642 0001491  82.1928 109.8225 15.98818873  2413
STARLINK-36297          
1 67671U 26022Z   26040.83335647 -.01650318  82119-3 -34502-2 0  9996
2 67671  97.2796  73.3661 0001399  82.5743 114.1346 15.99120747  2418
STARLINK-36616          
1 67672U 26022AA  26040.83335647 -.01656356  82552-3 -34900-2 0  9998
2 67672  97.2799  73.3654 0001418  79.7620 114.7426 15.98981642  2411
